[{"OBJECT_NAME":"PRAETORIAN SDA_620","OBJECT_ID":"2025-203U","EPOCH":"2026-03-09T12:58:55.594272","MEAN_MOTION":13.837055,"ECCENTRICITY":0.00087981,"INCLINATION":81.2996,"RA_OF_ASC_NODE":103.0097,"ARG_OF_PERICENTER":100.0422,"MEAN_ANOMALY":260.1727,"EPHEMERIS_TYPE":0,"CLASSIFICATION_TYPE":"U","NORAD_CAT_ID":65583,"ELEMENT_SET_NO":999,"REV_AT_EPOCH":2491,"BSTAR":0.00023467553,"MEAN_MOTION_DOT":2.71e-6,"MEAN_MOTION_DDOT":0},{"OBJECT_NAME":"COSMOS 1934","OBJECT_ID":"1988-023A","EPOCH":"2026-03-09T21:44:32.051328","MEAN_MOTION":13.76673088,"ECCENTRICITY":0.0041995,"INCLINATION":82.9544,"RA_OF_ASC_NODE":228.6344,"ARG_OF_PERICENTER":47.4294,"MEAN_ANOMALY":313.0395,"EPHEMERIS_TYPE":0,"CLASSIFICATION_TYPE":"U","NORAD_CAT_ID":18985,"ELEMENT_SET_NO":999,"REV_AT_EPOCH":78234,"BSTAR":4.9471827e-5,"MEAN_MOTION_DOT":6.4e-7,"MEAN_MOTION_DDOT":0}]
